COSMOS 2251 DEB         
1 33982U 93036FR  26065.63357350  .00004435  00000+0  87922-3 0  9993
2 33982  74.0706 200.0396 0075789 224.3344 150.7900 14.60726759903842
COSMOS 2251 DEB         
1 33983U 93036FS  26066.14220104  .00002136  00000+0  54480-3 0  9996
2 33983  74.0534 348.4673 0018996  69.4519 356.3447 14.51062126898536
COSMOS 2251 DEB         
1 33984U 93036FT  26066.03282702  .00005577  00000+0  98934-3 0  9991
2 33984  74.0092 184.2182 0024111 352.1703 124.3353 14.67283630903022
COSMOS 2251 DEB         
1 33986U 93036FV  26066.20090625  .00002297  00000+0  67704-3 0  9990
2 33986  74.0364 145.7335 0041458 203.4736 186.1652 14.43691980892474
COSMOS 2251 DEB         
1 33990U 93036FZ  26065.59145926  .00000979  00000+0  94077-3 0  9999
2 33990  73.9284 151.3690 0404894 156.4324 275.4151 13.50144002838619
COSMOS 2251 DEB         
1 33992U 93036GB  26066.00087012  .00005061  00000+0  88680-3 0  9999
2 33992  74.0244 175.1005 0054810 272.6215 205.9907 14.67069772903600
COSMOS 2251 DEB         
1 33994U 93036GD  26065.96317000  .00000351  00000+0  11640-3 0  9997
2 33994  74.0438  34.5385 0022546 153.4427 263.1251 14.41282004896334
COSMOS 2251 DEB         
1 33995U 93036GE  26065.11871707  .00002599  00000+0  89792-3 0  9993
2 33995  74.0634 326.7572 0060345 319.0465  40.6163 14.35258067887153
COSMOS 2251 DEB         
1 33999U 93036GJ  26065.41320020  .00015499  00000+0  17587-2 0  9992
2 33999  73.9165  63.6060 0046921 295.6042  64.0291 14.85533157904925
COSMOS 2251 DEB         
1 34001U 93036GL  26066.15332751  .00000452  00000+0  16017-3 0  9994
2 34001  74.0377 126.3613 0020416 194.9599 195.3970 14.37208390893594
COSMOS 2251 DEB         
1 34003U 93036GN  26065.62814278  .00003564  00000+0  23626-2 0  9996
2 34003  74.0776 143.8912 0278676 237.1620 120.2398 13.84610759855869
COSMOS 2251 DEB         
1 34004U 93036GP  26065.59122966  .00005500  00000+0  14203-2 0  9992
2 34004  74.0355 155.7733 0029590 154.6400 205.6221 14.49928351892455
COSMOS 2251 DEB         
1 34005U 93036GQ  26066.21100101  .00000385  00000+0  12939-3 0  9991
2 34005  74.0442  57.5676 0020004 161.7163 215.6019 14.40381879895957
COSMOS 2251 DEB         
1 34006U 93036GR  26066.16020461  .00045784  00000+0  33455-2 0  9993
2 34006  74.0521 332.2000 0011379 233.2697 253.4759 15.03363905899339
COSMOS 2251 DEB         
1 34007U 93036GS  26065.62580365  .00005474  00000+0  99739-3 0  9998
2 34007  74.0197 185.3182 0047504 298.1430  61.4943 14.65553356903089
COSMOS 2251 DEB         
1 34008U 93036GT  26065.60282125  .00000441  00000+0  16950-3 0  9993
2 34008  74.0350 177.2496 0022964 157.6422 213.2669 14.33212355891660
