[{"OBJECT_NAME":"COSMOS 2251 DEB","OBJECT_ID":"1993-036FR","EPOCH":"2026-03-06T15:12:20.750400","MEAN_MOTION":14.60726759,"ECCENTRICITY":0.0075789,"INCLINATION":74.0706,"RA_OF_ASC_NODE":200.0396,"ARG_OF_PERICENTER":224.3344,"MEAN_ANOMALY":150.79,"EPHEMERIS_TYPE":0,"CLASSIFICATION_TYPE":"U","NORAD_CAT_ID":33982,"ELEMENT_SET_NO":999,"REV_AT_EPOCH":90384,"BSTAR":0.00087921795,"MEAN_MOTION_DOT":4.435e-5,"MEAN_MOTION_DDOT":0},{"OBJECT_NAME":"COSMOS 2251 DEB","OBJECT_ID":"1993-036FS","EPOCH":"2026-03-07T03:24:46.169856","MEAN_MOTION":14.51062126,"ECCENTRICITY":0.0018996,"INCLINATION":74.0534,"RA_OF_ASC_NODE":348.4673,"ARG_OF_PERICENTER":69.4519,"MEAN_ANOMALY":356.3447,"EPHEMERIS_TYPE":0,"CLASSIFICATION_TYPE":"U","NORAD_CAT_ID":33983,"ELEMENT_SET_NO":999,"REV_AT_EPOCH":89853,"BSTAR":0.0005448,"MEAN_MOTION_DOT":2.136e-5,"MEAN_MOTION_DDOT":0},{"OBJECT_NAME":"COSMOS 2251 DEB","OBJECT_ID":"1993-036FT","EPOCH":"2026-03-07T00:47:16.254528","MEAN_MOTION":14.6728363,"ECCENTRICITY":0.0024111,"INCLINATION":74.0092,"RA_OF_ASC_NODE":184.2182,"ARG_OF_PERICENTER":352.1703,"MEAN_ANOMALY":124.3353,"EPHEMERIS_TYPE":0,"CLASSIFICATION_TYPE":"U","NORAD_CAT_ID":33984,"ELEMENT_SET_NO":999,"REV_AT_EPOCH":90302,"BSTAR":0.00098934,"MEAN_MOTION_DOT":5.577e-5,"MEAN_MOTION_DDOT":0},{"OBJECT_NAME":"COSMOS 2251 DEB","OBJECT_ID":"1993-036FV","EPOCH":"2026-03-07T04:49:18.300000","MEAN_MOTION":14.4369198,"ECCENTRICITY":0.0041458,"INCLINATION":74.0364,"RA_OF_ASC_NODE":145.7335,"ARG_OF_PERICENTER":203.4736,"MEAN_ANOMALY":186.1652,"EPHEMERIS_TYPE":0,"CLASSIFICATION_TYPE":"U","NORAD_CAT_ID":33986,"ELEMENT_SET_NO":999,"REV_AT_EPOCH":89247,"BSTAR":0.00067704,"MEAN_MOTION_DOT":2.297e-5,"MEAN_MOTION_DDOT":0},{"OBJECT_NAME":"COSMOS 2251 DEB","OBJECT_ID":"1993-036FZ","EPOCH":"2026-03-06T14:11:42.080064","MEAN_MOTION":13.50144002,"ECCENTRICITY":0.04048941,"INCLINATION":73.9284,"RA_OF_ASC_NODE":151.369,"ARG_OF_PERICENTER":156.4324,"MEAN_ANOMALY":275.4151,"EPHEMERIS_TYPE":0,"CLASSIFICATION_TYPE":"U","NORAD_CAT_ID":33990,"ELEMENT_SET_NO":999,"REV_AT_EPOCH":83861,"BSTAR":0.00094076765,"MEAN_MOTION_DOT":9.79e-6,"MEAN_MOTION_DDOT":0},{"OBJECT_NAME":"COSMOS 2251 DEB","OBJECT_ID":"1993-036GB","EPOCH":"2026-03-07T00:01:15.178368","MEAN_MOTION":14.67069772,"ECCENTRICITY":0.005481,"INCLINATION":74.0244,"RA_OF_ASC_NODE":175.1005,"ARG_OF_PERICENTER":272.6215,"MEAN_ANOMALY":205.9907,"EPHEMERIS_TYPE":0,"CLASSIFICATION_TYPE":"U","NORAD_CAT_ID":33992,"ELEMENT_SET_NO":999,"REV_AT_EPOCH":90360,"BSTAR":0.0008868,"MEAN_MOTION_DOT":5.061e-5,"MEAN_MOTION_DDOT":0},{"OBJECT_NAME":"COSMOS 2251 DEB","OBJECT_ID":"1993-036GD","EPOCH":"2026-03-06T23:06:57.888000","MEAN_MOTION":14.41282004,"ECCENTRICITY":0.0022546,"INCLINATION":74.0438,"RA_OF_ASC_NODE":34.5385,"ARG_OF_PERICENTER":153.4427,"MEAN_ANOMALY":263.1251,"EPHEMERIS_TYPE":0,"CLASSIFICATION_TYPE":"U","NORAD_CAT_ID":33994,"ELEMENT_SET_NO":999,"REV_AT_EPOCH":89633,"BSTAR":0.0001164,"MEAN_MOTION_DOT":3.51e-6,"MEAN_MOTION_DDOT":0},{"OBJECT_NAME":"COSMOS 2251 DEB","OBJECT_ID":"1993-036GE","EPOCH":"2026-03-06T02:50:57.154848","MEAN_MOTION":14.35258067,"ECCENTRICITY":0.00603454,"INCLINATION":74.0634,"RA_OF_ASC_NODE":326.7572,"ARG_OF_PERICENTER":319.0465,"MEAN_ANOMALY":40.6163,"EPHEMERIS_TYPE":0,"CLASSIFICATION_TYPE":"U","NORAD_CAT_ID":33995,"ELEMENT_SET_NO":999,"REV_AT_EPOCH":88715,"BSTAR":0.00089791647,"MEAN_MOTION_DOT":2.599e-5,"MEAN_MOTION_DDOT":0},{"OBJECT_NAME":"COSMOS 2251 DEB","OBJECT_ID":"1993-036GJ","EPOCH":"2026-03-06T09:55:00.497280","MEAN_MOTION":14.85533157,"ECCENTRICITY":0.00469219,"INCLINATION":73.9165,"RA_OF_ASC_NODE":63.606,"ARG_OF_PERICENTER":295.6042,"MEAN_ANOMALY":64.0291,"EPHEMERIS_TYPE":0,"CLASSIFICATION_TYPE":"U","NORAD_CAT_ID":33999,"ELEMENT_SET_NO":999,"REV_AT_EPOCH":90492,"BSTAR":0.0017586581,"MEAN_MOTION_DOT":0.00015499,"MEAN_MOTION_DDOT":0},{"OBJECT_NAME":"COSMOS 2251 DEB","OBJECT_ID":"1993-036GL","EPOCH":"2026-03-07T03:40:47.496864","MEAN_MOTION":14.3720839,"ECCENTRICITY":0.0020416,"INCLINATION":74.0377,"RA_OF_ASC_NODE":126.3613,"ARG_OF_PERICENTER":194.9599,"MEAN_ANOMALY":195.397,"EPHEMERIS_TYPE":0,"CLASSIFICATION_TYPE":"U","NORAD_CAT_ID":34001,"ELEMENT_SET_NO":999,"REV_AT_EPOCH":89359,"BSTAR":0.00016017,"MEAN_MOTION_DOT":4.52e-6,"MEAN_MOTION_DDOT":0},{"OBJECT_NAME":"COSMOS 2251 DEB","OBJECT_ID":"1993-036GN","EPOCH":"2026-03-06T15:04:31.536192","MEAN_MOTION":13.84610759,"ECCENTRICITY":0.02786763,"INCLINATION":74.0776,"RA_OF_ASC_NODE":143.8912,"ARG_OF_PERICENTER":237.162,"MEAN_ANOMALY":120.2398,"EPHEMERIS_TYPE":0,"CLASSIFICATION_TYPE":"U","NORAD_CAT_ID":34003,"ELEMENT_SET_NO":999,"REV_AT_EPOCH":85586,"BSTAR":0.002362617,"MEAN_MOTION_DOT":3.564e-5,"MEAN_MOTION_DDOT":0},{"OBJECT_NAME":"COSMOS 2251 DEB","OBJECT_ID":"1993-036GP","EPOCH":"2026-03-06T14:11:22.242624","MEAN_MOTION":14.49928351,"ECCENTRICITY":0.00295908,"INCLINATION":74.0355,"RA_OF_ASC_NODE":155.7733,"ARG_OF_PERICENTER":154.64,"MEAN_ANOMALY":205.6221,"EPHEMERIS_TYPE":0,"CLASSIFICATION_TYPE":"U","NORAD_CAT_ID":34004,"ELEMENT_SET_NO":999,"REV_AT_EPOCH":89245,"BSTAR":0.0014202964,"MEAN_MOTION_DOT":5.5e-5,"MEAN_MOTION_DDOT":0},{"OBJECT_NAME":"COSMOS 2251 DEB","OBJECT_ID":"1993-036GQ","EPOCH":"2026-03-07T05:03:50.487264","MEAN_MOTION":14.40381879,"ECCENTRICITY":0.0020004,"INCLINATION":74.0442,"RA_OF_ASC_NODE":57.5676,"ARG_OF_PERICENTER":161.7163,"MEAN_ANOMALY":215.6019,"EPHEMERIS_TYPE":0,"CLASSIFICATION_TYPE":"U","NORAD_CAT_ID":34005,"ELEMENT_SET_NO":999,"REV_AT_EPOCH":89595,"BSTAR":0.00012939,"MEAN_MOTION_DOT":3.85e-6,"MEAN_MOTION_DDOT":0},{"OBJECT_NAME":"COSMOS 2251 DEB","OBJECT_ID":"1993-036GR","EPOCH":"2026-03-07T03:50:41.678304","MEAN_MOTION":15.03363905,"ECCENTRICITY":0.0011379,"INCLINATION":74.0521,"RA_OF_ASC_NODE":332.2,"ARG_OF_PERICENTER":233.2697,"MEAN_ANOMALY":253.4759,"EPHEMERIS_TYPE":0,"CLASSIFICATION_TYPE":"U","NORAD_CAT_ID":34006,"ELEMENT_SET_NO":999,"REV_AT_EPOCH":89933,"BSTAR":0.0033455,"MEAN_MOTION_DOT":0.00045784,"MEAN_MOTION_DDOT":0},{"OBJECT_NAME":"COSMOS 2251 DEB","OBJECT_ID":"1993-036GS","EPOCH":"2026-03-06T15:01:09.435360","MEAN_MOTION":14.65553356,"ECCENTRICITY":0.00475049,"INCLINATION":74.0197,"RA_OF_ASC_NODE":185.3182,"ARG_OF_PERICENTER":298.143,"MEAN_ANOMALY":61.4943,"EPHEMERIS_TYPE":0,"CLASSIFICATION_TYPE":"U","NORAD_CAT_ID":34007,"ELEMENT_SET_NO":999,"REV_AT_EPOCH":90308,"BSTAR":0.00099739212,"MEAN_MOTION_DOT":5.474e-5,"MEAN_MOTION_DDOT":0},{"OBJECT_NAME":"COSMOS 2251 DEB","OBJECT_ID":"1993-036GT","EPOCH":"2026-03-06T14:28:03.756000","MEAN_MOTION":14.33212355,"ECCENTRICITY":0.00229642,"INCLINATION":74.035,"RA_OF_ASC_NODE":177.2496,"ARG_OF_PERICENTER":157.6422,"MEAN_ANOMALY":213.2669,"EPHEMERIS_TYPE":0,"CLASSIFICATION_TYPE":"U","NORAD_CAT_ID":34008,"ELEMENT_SET_NO":999,"REV_AT_EPOCH":89166,"BSTAR":0.00016950436,"MEAN_MOTION_DOT":4.41e-6,"MEAN_MOTION_DDOT":0}]
